SOKRAT                  
1 44404U 19038U   22181.87680579  .00003647  00000+0  18509-3 0  9996
2 44404  97.6348 151.4120 0021865  88.0840 272.2897 15.17366351165051
LUCKY-7                 
1 44406U 19038W   22181.85791194  .00002639  00000+0  14141-3 0  9990
2 44406  97.6389 150.9388 0024654  84.9432 275.4614 15.15652549164998
D-STAR ONE (EXOCONNECT) 
1 44410U 19038AA  22181.88581387  .00005746  00000+0  26815-3 0  9992
2 44410  97.6301 152.3323 0020971  83.5458 276.8164 15.20052957165138
NARSSCUBE-2             
1 44415U 19022E   22182.19206348  .00003858  00000+0  12309-3 0  9991
2 44415  51.6406  51.1889 0011599 106.2133 254.0126 15.34929173162222
DUCHIFAT-3              
1 44854U 19089C   22181.94297219  .00002343  00000+0  18535-3 0  9995
2 44854  36.9684  20.3698 0009655 329.9781  30.0381 15.01155875139966
OPS-SAT                 
1 44878U 19092F   22181.75502815  .00003205  00000+0  15089-3 0  9994
2 44878  97.4795   5.5910 0010873 296.1221  63.8895 15.20225363140212
FLORIPASAT-1            
1 44885U 19093G   22182.44487350  .00001331  00000+0  16935-3 0  9995
2 44885  97.8969 262.7708 0015500 142.7231 217.5051 14.83185704136925
HUSKYSAT-1 (HO-107)     
1 45119U 19071J   22181.89442721  .00011017  00000+0  23792-3 0  9994
2 45119  51.6390 353.3404 0009576 215.7384 144.2962 15.45011998135443
BY70-2                  
1 45857U 20042B   22182.48999961  .00004731  00000+0  63197-3 0  9990
2 45857  97.9551 259.1954 0012096  75.8794 284.3691 14.79962440107535
SALSAT                  
1 46495U 20068K   22181.79712035  .00001118  00000+0  84085-4 0  9991
2 46495  97.7294 123.1016 0015307 229.6196 130.3694 15.04554328 96191
NETSAT-4                
1 46504U 20068U   22181.82001496  .00001719  00000+0  13059-3 0  9997
2 46504  97.7281 121.5857 0010100 285.1034  74.9072 15.03499942 96054
NETSAT-3                
1 46505U 20068V   22181.83576341  .00002294  00000+0  17289-3 0  9993
2 46505  97.7261 121.5196 0009805 292.9468  67.0721 15.03457934 96066
NETSAT-1                
1 46506U 20068W   22181.78601682  .00002153  00000+0  16291-3 0  9991
2 46506  97.7255 121.4029 0008982 306.7324  53.3075 15.03382266 96058
NETSAT-2                
1 46507U 20068X   22181.92881187  .00001196  00000+0  92548-4 0  9994
2 46507  97.7256 121.5373 0008549 316.2944  43.7603 15.03358638 96029
BY70-3                  
1 46839U 20079N   22182.46161414  .00013668  00000+0  31707-3 0  9994
2 46839  97.1983 254.3762 0003634 273.6736 210.0689 15.42501341 92405
UVSQ-SAT                
1 47438U 21006AB  22181.68120162  .00002008  00000+0  10841-3 0  9991
2 47438  97.4362 240.4202 0010843 222.1855 137.8544 15.15819217 79282
SOMP2B                  
1 47445U 21006AJ  22181.88032590  .00002105  00000+0  11457-3 0  9990
2 47445  97.4335 240.2703 0010425 226.0318 134.0056 15.15494872 79303
TSURU                   
1 47927U 98067SD  22181.98947385  .01029441  70032-3  77228-3 0  9991
2 47927  51.6213 228.3484 0010850 355.8174   4.2750 16.14663201 73971
MAYA-2                  
1 47929U 98067SF  22182.13821808  .00825461  40276-3  74647-3 0  9996
2 47929  51.6203 227.8470 0011022 358.0159   2.0810 16.11904715 73957
GUARANISAT-1            
1 47931U 98067SH  22182.34259470  .01147615  93162-3  79066-3 0  9993
2 47931  51.6177 226.2043 0010044 356.4615   3.6329 16.15928025 74037
DIY-1 (ARDUIQUBE)       
1 47963U 21022AH  22181.69993533  .00005814  00000+0  32424-3 0  9992
2 47963  97.5315  82.9078 0019298  86.7297 273.6142 15.13802568 68955
